[{"OBJECT_NAME":"YAOGAN-35 02A","OBJECT_ID":"2022-068A","EPOCH":"2026-03-09T23:36:37.257984","MEAN_MOTION":15.22666149,"ECCENTRICITY":0.00125559,"INCLINATION":34.9934,"RA_OF_ASC_NODE":42.9156,"ARG_OF_PERICENTER":259.7032,"MEAN_ANOMALY":100.2267,"EPHEMERIS_TYPE":0,"CLASSIFICATION_TYPE":"U","NORAD_CAT_ID":52907,"ELEMENT_SET_NO":999,"REV_AT_EPOCH":20675,"BSTAR":0.00043413541,"MEAN_MOTION_DOT":0.00010355,"MEAN_MOTION_DDOT":0},{"OBJECT_NAME":"COSMOS 2251 DEB","OBJECT_ID":"1993-036PY","EPOCH":"2026-03-09T13:11:45.503808","MEAN_MOTION":15.22484141,"ECCENTRICITY":0.00131116,"INCLINATION":74.0261,"RA_OF_ASC_NODE":116.9532,"ARG_OF_PERICENTER":282.9414,"MEAN_ANOMALY":196.3811,"EPHEMERIS_TYPE":0,"CLASSIFICATION_TYPE":"U","NORAD_CAT_ID":34383,"ELEMENT_SET_NO":999,"REV_AT_EPOCH":90428,"BSTAR":0.0028700217,"MEAN_MOTION_DOT":0.00067222,"MEAN_MOTION_DDOT":0}]
